id,name,centerTypeCode,addressLine1,addressLine2,addressLine3,latitude,longitude,locationCode,holidayLocationCode,contactPhone,workingHours,langCode,numberOfKiosks,perKioskProcessTime,centerStartTime,centerEndTime,timeZone,contactPerson,lunchStartTime,lunchEndTime,isActive,zoneCode
10052,MOSIP-Center-10052,REG,Address-MOSIP-Center-10052,MOSIP-City481,MOSIP-City481,0.0001,0.0001,100067,100001,(091) 99988909,9:00:00,eng,5,00:15:00,07:00:00,17:00:00,(GMT+05:30) Indian Standard Time,Officer-10052,12:00:00,13:00:00,true,MYZONE
10460,MOSIP-Center-10460,REG,Address-MOSIP-Center-10460,MOSIP-City597,MOSIP-City597,0.0001,0.0001,100050,100001,(091) 99989347,9:00:00,eng,5,00:15:00,07:00:00,17:00:00,(GMT+05:30) Indian Standard Time,Officer-10460,12:00:00,13:00:00,true,MYZONE
10287,MOSIP-Center-10287,REG,Address-MOSIP-Center-10287,MOSIP-City882,MOSIP-City882,0.0001,0.0001,100071,100001,(091) 99989159,9:00:00,eng,5,00:15:00,07:00:00,17:00:00,(GMT+05:30) Indian Standard Time,Officer-10287,12:00:00,13:00:00,true,MYZONE
10216,MOSIP-Center-10216,REG,Address-MOSIP-Center-10216,MOSIP-City979,MOSIP-City979,0.0001,0.0001,100040,100001,(091) 99989081,9:00:00,eng,5,00:15:00,07:00:00,17:00:00,(GMT+05:30) Indian Standard Time,Officer-10216,12:00:00,13:00:00,true,MYZONE
10681,MOSIP-Center-10681,REG,Address-MOSIP-Center-10681,MOSIP-City314,MOSIP-City314,0.0001,0.0001,100056,100001,(091) 99989578,9:00:00,eng,5,00:15:00,07:00:00,17:00:00,(GMT+05:30) Indian Standard Time,Officer-10681,12:00:00,13:00:00,true,MYZONE
10329,MOSIP-Center-10329,REG,Address-MOSIP-Center-10329,MOSIP-City281,MOSIP-City281,0.0001,0.0001,100020,100001,(091) 99989206,9:00:00,eng,5,00:15:00,07:00:00,17:00:00,(GMT+05:30) Indian Standard Time,Officer-10329,12:00:00,13:00:00,true,MYZONE
10638,MOSIP-Center-10638,REG,Address-MOSIP-Center-10638,MOSIP-City1472,MOSIP-City1472,0.0001,0.0001,100077,100001,(091) 99989533,9:00:00,eng,5,00:15:00,07:00:00,17:00:00,(GMT+05:30) Indian Standard Time,Officer-10638,12:00:00,13:00:00,true,MYZONE
10061,MOSIP-Center-10061,REG,Address-MOSIP-Center-10061,MOSIP-City1288,MOSIP-City1288,0.0001,0.0001,100012,100001,(091) 99988918,9:00:00,eng,5,00:15:00,07:00:00,17:00:00,(GMT+05:30) Indian Standard Time,Officer-10061,12:00:00,13:00:00,true,MYZONE
10801,MOSIP-Center-10801,REG,Address-MOSIP-Center-10801,MOSIP-City1021,MOSIP-City1021,0.0001,0.0001,100064,100001,(091) 99989703,9:00:00,eng,5,00:15:00,07:00:00,17:00:00,(GMT+05:30) Indian Standard Time,Officer-10801,12:00:00,13:00:00,true,MYZONE
10015,MOSIP-Center-10015,REG,Address-MOSIP-Center-10015,MOSIP-City448,MOSIP-City448,0.0001,0.0001,100049,100001,(091) 99989148,9:00:00,eng,5,00:15:00,07:00:00,17:00:00,(GMT+05:30) Indian Standard Time,Officer-10015,12:00:00,13:00:00,true,MYZONE
10737,MOSIP-Center-10737,REG,Address-MOSIP-Center-10737,MOSIP-City681,MOSIP-City681,0.0001,0.0001,100007,100001,(091) 99989636,9:00:00,eng,5,00:15:00,07:00:00,17:00:00,(GMT+05:30) Indian Standard Time,Officer-10737,12:00:00,13:00:00,true,MYZONE
10677,MOSIP-Center-10677,REG,Address-MOSIP-Center-10677,MOSIP-City167,MOSIP-City167,0.0001,0.0001,100020,100001,(091) 99989574,9:00:00,eng,5,00:15:00,07:00:00,17:00:00,(GMT+05:30) Indian Standard Time,Officer-10677,12:00:00,13:00:00,true,MYZONE
10536,MOSIP-Center-10536,REG,Address-MOSIP-Center-10536,MOSIP-City657,MOSIP-City657,0.0001,0.0001,100058,100001,(091) 99989426,9:00:00,eng,5,00:15:00,07:00:00,17:00:00,(GMT+05:30) Indian Standard Time,Officer-10536,12:00:00,13:00:00,true,MYZONE
10616,MOSIP-Center-10616,REG,Address-MOSIP-Center-10616,MOSIP-City431,MOSIP-City431,0.0001,0.0001,100042,100001,(091) 99989511,9:00:00,eng,5,00:15:00,07:00:00,17:00:00,(GMT+05:30) Indian Standard Time,Officer-10616,12:00:00,13:00:00,true,MYZONE
10219,MOSIP-Center-10219,REG,Address-MOSIP-Center-10219,MOSIP-City1194,MOSIP-City1194,0.0001,0.0001,100065,100001,(091) 99989084,9:00:00,eng,5,00:15:00,07:00:00,17:00:00,(GMT+05:30) Indian Standard Time,Officer-10219,12:00:00,13:00:00,true,MYZONE
10737,MOSIP-Center-10737,REG,Address-MOSIP-Center-10737,MOSIP-City681,MOSIP-City681,0.0001,0.0001,100007,100001,(091) 99989636,9:00:00,eng,5,00:15:00,07:00:00,17:00:00,(GMT+05:30) Indian Standard Time,Officer-10737,12:00:00,13:00:00,true,MYZONE
10404,MOSIP-Center-10404,REG,Address-MOSIP-Center-10404,MOSIP-City1050,MOSIP-City1050,0.0001,0.0001,100034,100001,(091) 99989287,9:00:00,eng,5,00:15:00,07:00:00,17:00:00,(GMT+05:30) Indian Standard Time,Officer-10404,12:00:00,13:00:00,true,MYZONE
10720,MOSIP-Center-10720,REG,Address-MOSIP-Center-10720,MOSIP-City81,MOSIP-City81,0.0001,0.0001,100018,100001,(091) 99989619,9:00:00,eng,5,00:15:00,07:00:00,17:00:00,(GMT+05:30) Indian Standard Time,Officer-10720,12:00:00,13:00:00,true,MYZONE
10654,MOSIP-Center-10654,REG,Address-MOSIP-Center-10654,MOSIP-City472,MOSIP-City472,0.0001,0.0001,100065,100001,(091) 99989550,9:00:00,eng,5,00:15:00,07:00:00,17:00:00,(GMT+05:30) Indian Standard Time,Officer-10654,12:00:00,13:00:00,true,MYZONE
10324,MOSIP-Center-10324,REG,Address-MOSIP-Center-10324,MOSIP-City1142,MOSIP-City1142,0.0001,0.0001,100023,100001,(091) 99989200,9:00:00,eng,5,00:15:00,07:00:00,17:00:00,(GMT+05:30) Indian Standard Time,Officer-10324,12:00:00,13:00:00,true,MYZONE
10440,MOSIP-Center-10440,REG,Address-MOSIP-Center-10440,MOSIP-City1349,MOSIP-City1349,0.0001,0.0001,100027,100001,(091) 99989325,9:00:00,eng,5,00:15:00,07:00:00,17:00:00,(GMT+05:30) Indian Standard Time,Officer-10440,12:00:00,13:00:00,true,MYZONE
10868,MOSIP-Center-10868,REG,Address-MOSIP-Center-10868,MOSIP-City2118,MOSIP-City2118,0.0001,0.0001,100037,100001,(091) 99989769,9:00:00,eng,5,00:15:00,07:00:00,17:00:00,(GMT+05:30) Indian Standard Time,Officer-10868,12:00:00,13:00:00,true,MYZONE
10938,MOSIP-Center-10938,REG,Address-MOSIP-Center-10938,MOSIP-City4078,MOSIP-City4078,0.0001,0.0001,100026,100001,(091) 99989839,9:00:00,eng,5,00:15:00,07:00:00,17:00:00,(GMT+05:30) Indian Standard Time,Officer-10938,12:00:00,13:00:00,true,MYZONE
10390,MOSIP-Center-10390,REG,Address-MOSIP-Center-10390,MOSIP-City459,MOSIP-City459,0.0001,0.0001,100040,100001,(091) 99989273,9:00:00,eng,5,00:15:00,07:00:00,17:00:00,(GMT+05:30) Indian Standard Time,Officer-10390,12:00:00,13:00:00,true,MYZONE
10643,MOSIP-Center-10643,REG,Address-MOSIP-Center-10643,MOSIP-City97,MOSIP-City97,0.0001,0.0001,100087,100001,(091) 99989539,9:00:00,eng,5,00:15:00,07:00:00,17:00:00,(GMT+05:30) Indian Standard Time,Officer-10643,12:00:00,13:00:00,true,MYZONE
10303,MOSIP-Center-10303,REG,Address-MOSIP-Center-10303,MOSIP-City433,MOSIP-City433,0.0001,0.0001,100003,100001,(091) 99989177,9:00:00,eng,5,00:15:00,07:00:00,17:00:00,(GMT+05:30) Indian Standard Time,Officer-10303,12:00:00,13:00:00,true,MYZONE
10994,MOSIP-Center-10994,REG,Address-MOSIP-Center-10994,MOSIP-City5646,MOSIP-City5646,0.0001,0.0001,100046,100001,(091) 99989895,9:00:00,eng,5,00:15:00,07:00:00,17:00:00,(GMT+05:30) Indian Standard Time,Officer-10994,12:00:00,13:00:00,true,MYZONE
10645,MOSIP-Center-10645,REG,Address-MOSIP-Center-10645,MOSIP-City168,MOSIP-City168,0.0001,0.0001,100048,100001,(091) 99989541,9:00:00,eng,5,00:15:00,07:00:00,17:00:00,(GMT+05:30) Indian Standard Time,Officer-10645,12:00:00,13:00:00,true,MYZONE
10408,MOSIP-Center-10408,REG,Address-MOSIP-Center-10408,MOSIP-City1169,MOSIP-City1169,0.0001,0.0001,100055,100001,(091) 99989291,9:00:00,eng,5,00:15:00,07:00:00,17:00:00,(GMT+05:30) Indian Standard Time,Officer-10408,12:00:00,13:00:00,true,MYZONE
10106,MOSIP-Center-10106,REG,Address-MOSIP-Center-10106,MOSIP-City348,MOSIP-City348,0.0001,0.0001,100028,100001,(091) 99988967,9:00:00,eng,5,00:15:00,07:00:00,17:00:00,(GMT+05:30) Indian Standard Time,Officer-10106,12:00:00,13:00:00,true,MYZONE
10464,MOSIP-Center-10464,REG,Address-MOSIP-Center-10464,MOSIP-City806,MOSIP-City806,0.0001,0.0001,100077,100001,(091) 99989351,9:00:00,eng,5,00:15:00,07:00:00,17:00:00,(GMT+05:30) Indian Standard Time,Officer-10464,12:00:00,13:00:00,true,MYZONE
10604,MOSIP-Center-10604,REG,Address-MOSIP-Center-10604,MOSIP-City154,MOSIP-City154,0.0001,0.0001,100014,100001,(091) 99989499,9:00:00,eng,5,00:15:00,07:00:00,17:00:00,(GMT+05:30) Indian Standard Time,Officer-10604,12:00:00,13:00:00,true,MYZONE
10081,MOSIP-Center-10081,REG,Address-MOSIP-Center-10081,MOSIP-City255,MOSIP-City255,0.0001,0.0001,100086,100001,(091) 99988940,9:00:00,eng,5,00:15:00,07:00:00,17:00:00,(GMT+05:30) Indian Standard Time,Officer-10081,12:00:00,13:00:00,true,MYZONE
10378,MOSIP-Center-10378,REG,Address-MOSIP-Center-10378,MOSIP-City89,MOSIP-City89,0.0001,0.0001,100068,100001,(091) 99989261,9:00:00,eng,5,00:15:00,07:00:00,17:00:00,(GMT+05:30) Indian Standard Time,Officer-10378,12:00:00,13:00:00,true,MYZONE
10836,MOSIP-Center-10836,REG,Address-MOSIP-Center-10836,MOSIP-City793,MOSIP-City793,0.0001,0.0001,100034,100001,(091) 99989739,9:00:00,eng,5,00:15:00,07:00:00,17:00:00,(GMT+05:30) Indian Standard Time,Officer-10836,12:00:00,13:00:00,true,MYZONE
10915,MOSIP-Center-10915,REG,Address-MOSIP-Center-10915,MOSIP-City3434,MOSIP-City3434,0.0001,0.0001,100080,100001,(091) 99989816,9:00:00,eng,5,00:15:00,07:00:00,17:00:00,(GMT+05:30) Indian Standard Time,Officer-10915,12:00:00,13:00:00,true,MYZONE
10485,MOSIP-Center-10485,REG,Address-MOSIP-Center-10485,MOSIP-City194,MOSIP-City194,0.0001,0.0001,100031,100001,(091) 99989373,9:00:00,eng,5,00:15:00,07:00:00,17:00:00,(GMT+05:30) Indian Standard Time,Officer-10485,12:00:00,13:00:00,true,MYZONE
10257,MOSIP-Center-10257,REG,Address-MOSIP-Center-10257,MOSIP-City211,MOSIP-City211,0.0001,0.0001,100082,100001,(091) 99989127,9:00:00,eng,5,00:15:00,07:00:00,17:00:00,(GMT+05:30) Indian Standard Time,Officer-10257,12:00:00,13:00:00,true,MYZONE
10153,MOSIP-Center-10153,REG,Address-MOSIP-Center-10153,MOSIP-City606,MOSIP-City606,0.0001,0.0001,100013,100001,(091) 99989015,9:00:00,eng,5,00:15:00,07:00:00,17:00:00,(GMT+05:30) Indian Standard Time,Officer-10153,12:00:00,13:00:00,true,MYZONE
10062,MOSIP-Center-10062,REG,Address-MOSIP-Center-10062,MOSIP-City1318,MOSIP-City1318,0.0001,0.0001,100008,100001,(091) 99988919,9:00:00,eng,5,00:15:00,07:00:00,17:00:00,(GMT+05:30) Indian Standard Time,Officer-10062,12:00:00,13:00:00,true,MYZONE
10961,MOSIP-Center-10961,REG,Address-MOSIP-Center-10961,MOSIP-City4722,MOSIP-City4722,0.0001,0.0001,100042,100001,(091) 99989862,9:00:00,eng,5,00:15:00,07:00:00,17:00:00,(GMT+05:30) Indian Standard Time,Officer-10961,12:00:00,13:00:00,true,MYZONE
10749,MOSIP-Center-10749,REG,Address-MOSIP-Center-10749,MOSIP-City386,MOSIP-City386,0.0001,0.0001,100041,100001,(091) 99989649,9:00:00,eng,5,00:15:00,07:00:00,17:00:00,(GMT+05:30) Indian Standard Time,Officer-10749,12:00:00,13:00:00,true,MYZONE
10546,MOSIP-Center-10546,REG,Address-MOSIP-Center-10546,MOSIP-City309,MOSIP-City309,0.0001,0.0001,100018,100001,(091) 99989436,9:00:00,eng,5,00:15:00,07:00:00,17:00:00,(GMT+05:30) Indian Standard Time,Officer-10546,12:00:00,13:00:00,true,MYZONE
10802,MOSIP-Center-10802,REG,Address-MOSIP-Center-10802,MOSIP-City1021,MOSIP-City1021,0.0001,0.0001,100045,100001,(091) 99989704,9:00:00,eng,5,00:15:00,07:00:00,17:00:00,(GMT+05:30) Indian Standard Time,Officer-10802,12:00:00,13:00:00,true,MYZONE
10215,MOSIP-Center-10215,REG,Address-MOSIP-Center-10215,MOSIP-City752,MOSIP-City752,0.0001,0.0001,100007,100001,(091) 99989080,9:00:00,eng,5,00:15:00,07:00:00,17:00:00,(GMT+05:30) Indian Standard Time,Officer-10215,12:00:00,13:00:00,true,MYZONE
10293,MOSIP-Center-10293,REG,Address-MOSIP-Center-10293,MOSIP-City1360,MOSIP-City1360,0.0001,0.0001,100070,100001,(091) 99989165,9:00:00,eng,5,00:15:00,07:00:00,17:00:00,(GMT+05:30) Indian Standard Time,Officer-10293,12:00:00,13:00:00,true,MYZONE
10557,MOSIP-Center-10557,REG,Address-MOSIP-Center-10557,MOSIP-City198,MOSIP-City198,0.0001,0.0001,100053,100001,(091) 99989451,9:00:00,eng,5,00:15:00,07:00:00,17:00:00,(GMT+05:30) Indian Standard Time,Officer-10557,12:00:00,13:00:00,true,MYZONE
10366,MOSIP-Center-10366,REG,Address-MOSIP-Center-10366,MOSIP-City350,MOSIP-City350,0.0001,0.0001,100006,100001,(091) 99989246,9:00:00,eng,5,00:15:00,07:00:00,17:00:00,(GMT+05:30) Indian Standard Time,Officer-10366,12:00:00,13:00:00,true,MYZONE
10818,MOSIP-Center-10818,REG,Address-MOSIP-Center-10818,MOSIP-City268,MOSIP-City268,0.0001,0.0001,100001,100001,(091) 99989721,9:00:00,eng,5,00:15:00,07:00:00,17:00:00,(GMT+05:30) Indian Standard Time,Officer-10818,12:00:00,13:00:00,true,MYZONE
10155,MOSIP-Center-10155,REG,Address-MOSIP-Center-10155,MOSIP-City666,MOSIP-City666,0.0001,0.0001,100020,100001,(091) 99989017,9:00:00,eng,5,00:15:00,07:00:00,17:00:00,(GMT+05:30) Indian Standard Time,Officer-10155,12:00:00,13:00:00,true,MYZONE
10995,MOSIP-Center-10995,REG,Address-MOSIP-Center-10995,MOSIP-City5674,MOSIP-City5674,0.0001,0.0001,100007,100001,(091) 99989896,9:00:00,eng,5,00:15:00,07:00:00,17:00:00,(GMT+05:30) Indian Standard Time,Officer-10995,12:00:00,13:00:00,true,MYZONE
10121,MOSIP-Center-10121,REG,Address-MOSIP-Center-10121,MOSIP-City1034,MOSIP-City1034,0.0001,0.0001,100087,100001,(091) 99988982,9:00:00,eng,5,00:15:00,07:00:00,17:00:00,(GMT+05:30) Indian Standard Time,Officer-10121,12:00:00,13:00:00,true,MYZONE
10556,MOSIP-Center-10556,REG,Address-MOSIP-Center-10556,MOSIP-City197,MOSIP-City197,0.0001,0.0001,100087,100001,(091) 99989450,9:00:00,eng,5,00:15:00,07:00:00,17:00:00,(GMT+05:30) Indian Standard Time,Officer-10556,12:00:00,13:00:00,true,MYZONE
10875,MOSIP-Center-10875,REG,Address-MOSIP-Center-10875,MOSIP-City2314,MOSIP-City2314,0.0001,0.0001,100016,100001,(091) 99989776,9:00:00,eng,5,00:15:00,07:00:00,17:00:00,(GMT+05:30) Indian Standard Time,Officer-10875,12:00:00,13:00:00,true,MYZONE
10825,MOSIP-Center-10825,REG,Address-MOSIP-Center-10825,MOSIP-City400,MOSIP-City400,0.0001,0.0001,100065,100001,(091) 99989728,9:00:00,eng,5,00:15:00,07:00:00,17:00:00,(GMT+05:30) Indian Standard Time,Officer-10825,12:00:00,13:00:00,true,MYZONE
10044,MOSIP-Center-10044,REG,Address-MOSIP-Center-10044,MOSIP-City40,MOSIP-City40,0.0001,0.0001,100019,100001,(091) 99988901,9:00:00,eng,5,00:15:00,07:00:00,17:00:00,(GMT+05:30) Indian Standard Time,Officer-10044,12:00:00,13:00:00,true,MYZONE
10258,MOSIP-Center-10258,REG,Address-MOSIP-Center-10258,MOSIP-City243,MOSIP-City243,0.0001,0.0001,100015,100001,(091) 99989128,9:00:00,eng,5,00:15:00,07:00:00,17:00:00,(GMT+05:30) Indian Standard Time,Officer-10258,12:00:00,13:00:00,true,MYZONE
10916,MOSIP-Center-10916,REG,Address-MOSIP-Center-10916,MOSIP-City3462,MOSIP-City3462,0.0001,0.0001,100022,100001,(091) 99989817,9:00:00,eng,5,00:15:00,07:00:00,17:00:00,(GMT+05:30) Indian Standard Time,Officer-10916,12:00:00,13:00:00,true,MYZONE
10638,MOSIP-Center-10638,REG,Address-MOSIP-Center-10638,MOSIP-City1472,MOSIP-City1472,0.0001,0.0001,100077,100001,(091) 99989533,9:00:00,eng,5,00:15:00,07:00:00,17:00:00,(GMT+05:30) Indian Standard Time,Officer-10638,12:00:00,13:00:00,true,MYZONE
10519,MOSIP-Center-10519,REG,Address-MOSIP-Center-10519,MOSIP-City200,MOSIP-City200,0.0001,0.0001,100015,100001,(091) 99989409,9:00:00,eng,5,00:15:00,07:00:00,17:00:00,(GMT+05:30) Indian Standard Time,Officer-10519,12:00:00,13:00:00,true,MYZONE
10740,MOSIP-Center-10740,REG,Address-MOSIP-Center-10740,MOSIP-City726,MOSIP-City726,0.0001,0.0001,100019,100001,(091) 99989639,9:00:00,eng,5,00:15:00,07:00:00,17:00:00,(GMT+05:30) Indian Standard Time,Officer-10740,12:00:00,13:00:00,true,MYZONE
10427,MOSIP-Center-10427,REG,Address-MOSIP-Center-10427,MOSIP-City426,MOSIP-City426,0.0001,0.0001,100081,100001,(091) 99989312,9:00:00,eng,5,00:15:00,07:00:00,17:00:00,(GMT+05:30) Indian Standard Time,Officer-10427,12:00:00,13:00:00,true,MYZONE
10410,MOSIP-Center-10410,REG,Address-MOSIP-Center-10410,MOSIP-City1210,MOSIP-City1210,0.0001,0.0001,100008,100001,(091) 99989293,9:00:00,eng,5,00:15:00,07:00:00,17:00:00,(GMT+05:30) Indian Standard Time,Officer-10410,12:00:00,13:00:00,true,MYZONE
10861,MOSIP-Center-10861,REG,Address-MOSIP-Center-10861,MOSIP-City1922,MOSIP-City1922,0.0001,0.0001,100086,100001,(091) 99989762,9:00:00,eng,5,00:15:00,07:00:00,17:00:00,(GMT+05:30) Indian Standard Time,Officer-10861,12:00:00,13:00:00,true,MYZONE
10191,MOSIP-Center-10191,REG,Address-MOSIP-Center-10191,MOSIP-City702,MOSIP-City702,0.0001,0.0001,100011,100001,(091) 99989054,9:00:00,eng,5,00:15:00,07:00:00,17:00:00,(GMT+05:30) Indian Standard Time,Officer-10191,12:00:00,13:00:00,true,MYZONE
10481,MOSIP-Center-10481,REG,Address-MOSIP-Center-10481,MOSIP-City1556,MOSIP-City1556,0.0001,0.0001,100079,100001,(091) 99989368,9:00:00,eng,5,00:15:00,07:00:00,17:00:00,(GMT+05:30) Indian Standard Time,Officer-10481,12:00:00,13:00:00,true,MYZONE
10145,MOSIP-Center-10145,REG,Address-MOSIP-Center-10145,MOSIP-City133,MOSIP-City133,0.0001,0.0001,100047,100001,(091) 99989007,9:00:00,eng,5,00:15:00,07:00:00,17:00:00,(GMT+05:30) Indian Standard Time,Officer-10145,12:00:00,13:00:00,true,MYZONE
10572,MOSIP-Center-10572,REG,Address-MOSIP-Center-10572,MOSIP-City571,MOSIP-City571,0.0001,0.0001,100031,100001,(091) 99989466,9:00:00,eng,5,00:15:00,07:00:00,17:00:00,(GMT+05:30) Indian Standard Time,Officer-10572,12:00:00,13:00:00,true,MYZONE
10941,MOSIP-Center-10941,REG,Address-MOSIP-Center-10941,MOSIP-City4162,MOSIP-City4162,0.0001,0.0001,100052,100001,(091) 99989842,9:00:00,eng,5,00:15:00,07:00:00,17:00:00,(GMT+05:30) Indian Standard Time,Officer-10941,12:00:00,13:00:00,true,MYZONE
10720,MOSIP-Center-10720,REG,Address-MOSIP-Center-10720,MOSIP-City81,MOSIP-City81,0.0001,0.0001,100018,100001,(091) 99989619,9:00:00,eng,5,00:15:00,07:00:00,17:00:00,(GMT+05:30) Indian Standard Time,Officer-10720,12:00:00,13:00:00,true,MYZONE
10258,MOSIP-Center-10258,REG,Address-MOSIP-Center-10258,MOSIP-City243,MOSIP-City243,0.0001,0.0001,100015,100001,(091) 99989128,9:00:00,eng,5,00:15:00,07:00:00,17:00:00,(GMT+05:30) Indian Standard Time,Officer-10258,12:00:00,13:00:00,true,MYZONE
10579,MOSIP-Center-10579,REG,Address-MOSIP-Center-10579,MOSIP-City813,MOSIP-City813,0.0001,0.0001,100035,100001,(091) 99989473,9:00:00,eng,5,00:15:00,07:00:00,17:00:00,(GMT+05:30) Indian Standard Time,Officer-10579,12:00:00,13:00:00,true,MYZONE
10833,MOSIP-Center-10833,REG,Address-MOSIP-Center-10833,MOSIP-City665,MOSIP-City665,0.0001,0.0001,100041,100001,(091) 99989736,9:00:00,eng,5,00:15:00,07:00:00,17:00:00,(GMT+05:30) Indian Standard Time,Officer-10833,12:00:00,13:00:00,true,MYZONE
10751,MOSIP-Center-10751,REG,Address-MOSIP-Center-10751,MOSIP-City386,MOSIP-City386,0.0001,0.0001,100036,100001,(091) 99989651,9:00:00,eng,5,00:15:00,07:00:00,17:00:00,(GMT+05:30) Indian Standard Time,Officer-10751,12:00:00,13:00:00,true,MYZONE
10441,MOSIP-Center-10441,REG,Address-MOSIP-Center-10441,MOSIP-City1607,MOSIP-City1607,0.0001,0.0001,100044,100001,(091) 99989326,9:00:00,eng,5,00:15:00,07:00:00,17:00:00,(GMT+05:30) Indian Standard Time,Officer-10441,12:00:00,13:00:00,true,MYZONE
10314,MOSIP-Center-10314,REG,Address-MOSIP-Center-10314,MOSIP-City3,MOSIP-City3,0.0001,0.0001,100033,100001,(091) 99989190,9:00:00,eng,5,00:15:00,07:00:00,17:00:00,(GMT+05:30) Indian Standard Time,Officer-10314,12:00:00,13:00:00,true,MYZONE
10772,MOSIP-Center-10772,REG,Address-MOSIP-Center-10772,MOSIP-City1426,MOSIP-City1426,0.0001,0.0001,100074,100001,(091) 99989673,9:00:00,eng,5,00:15:00,07:00:00,17:00:00,(GMT+05:30) Indian Standard Time,Officer-10772,12:00:00,13:00:00,true,MYZONE
10253,MOSIP-Center-10253,REG,Address-MOSIP-Center-10253,MOSIP-City1632,MOSIP-City1632,0.0001,0.0001,100081,100001,(091) 99989122,9:00:00,eng,5,00:15:00,07:00:00,17:00:00,(GMT+05:30) Indian Standard Time,Officer-10253,12:00:00,13:00:00,true,MYZONE
10947,MOSIP-Center-10947,REG,Address-MOSIP-Center-10947,MOSIP-City4330,MOSIP-City4330,0.0001,0.0001,100085,100001,(091) 99989848,9:00:00,eng,5,00:15:00,07:00:00,17:00:00,(GMT+05:30) Indian Standard Time,Officer-10947,12:00:00,13:00:00,true,MYZONE
10117,MOSIP-Center-10117,REG,Address-MOSIP-Center-10117,MOSIP-City932,MOSIP-City932,0.0001,0.0001,100068,100001,(091) 99988978,9:00:00,eng,5,00:15:00,07:00:00,17:00:00,(GMT+05:30) Indian Standard Time,Officer-10117,12:00:00,13:00:00,true,MYZONE
10538,MOSIP-Center-10538,REG,Address-MOSIP-Center-10538,MOSIP-City667,MOSIP-City667,0.0001,0.0001,100063,100001,(091) 99989428,9:00:00,eng,5,00:15:00,07:00:00,17:00:00,(GMT+05:30) Indian Standard Time,Officer-10538,12:00:00,13:00:00,true,MYZONE
10349,MOSIP-Center-10349,REG,Address-MOSIP-Center-10349,MOSIP-City1546,MOSIP-City1546,0.0001,0.0001,100037,100001,(091) 99989226,9:00:00,eng,5,00:15:00,07:00:00,17:00:00,(GMT+05:30) Indian Standard Time,Officer-10349,12:00:00,13:00:00,true,MYZONE
10165,MOSIP-Center-10165,REG,Address-MOSIP-Center-10165,MOSIP-City1413,MOSIP-City1413,0.0001,0.0001,100075,100001,(091) 99989027,9:00:00,eng,5,00:15:00,07:00:00,17:00:00,(GMT+05:30) Indian Standard Time,Officer-10165,12:00:00,13:00:00,true,MYZONE
10450,MOSIP-Center-10450,REG,Address-MOSIP-Center-10450,MOSIP-City216,MOSIP-City216,0.0001,0.0001,100049,100001,(091) 99989337,9:00:00,eng,5,00:15:00,07:00:00,17:00:00,(GMT+05:30) Indian Standard Time,Officer-10450,12:00:00,13:00:00,true,MYZONE
10555,MOSIP-Center-10555,REG,Address-MOSIP-Center-10555,MOSIP-City181,MOSIP-City181,0.0001,0.0001,100070,100001,(091) 99989449,9:00:00,eng,5,00:15:00,07:00:00,17:00:00,(GMT+05:30) Indian Standard Time,Officer-10555,12:00:00,13:00:00,true,MYZONE
10601,MOSIP-Center-10601,REG,Address-MOSIP-Center-10601,MOSIP-City80,MOSIP-City80,0.0001,0.0001,100081,100001,(091) 99989496,9:00:00,eng,5,00:15:00,07:00:00,17:00:00,(GMT+05:30) Indian Standard Time,Officer-10601,12:00:00,13:00:00,true,MYZONE
10473,MOSIP-Center-10473,REG,Address-MOSIP-Center-10473,MOSIP-City1149,MOSIP-City1149,0.0001,0.0001,100001,100001,(091) 99989360,9:00:00,eng,5,00:15:00,07:00:00,17:00:00,(GMT+05:30) Indian Standard Time,Officer-10473,12:00:00,13:00:00,true,MYZONE
10535,MOSIP-Center-10535,REG,Address-MOSIP-Center-10535,MOSIP-City586,MOSIP-City586,0.0001,0.0001,100038,100001,(091) 99989425,9:00:00,eng,5,00:15:00,07:00:00,17:00:00,(GMT+05:30) Indian Standard Time,Officer-10535,12:00:00,13:00:00,true,MYZONE
10924,MOSIP-Center-10924,REG,Address-MOSIP-Center-10924,MOSIP-City3686,MOSIP-City3686,0.0001,0.0001,100035,100001,(091) 99989825,9:00:00,eng,5,00:15:00,07:00:00,17:00:00,(GMT+05:30) Indian Standard Time,Officer-10924,12:00:00,13:00:00,true,MYZONE
10952,MOSIP-Center-10952,REG,Address-MOSIP-Center-10952,MOSIP-City4470,MOSIP-City4470,0.0001,0.0001,100059,100001,(091) 99989853,9:00:00,eng,5,00:15:00,07:00:00,17:00:00,(GMT+05:30) Indian Standard Time,Officer-10952,12:00:00,13:00:00,true,MYZONE
10409,MOSIP-Center-10409,REG,Address-MOSIP-Center-10409,MOSIP-City1169,MOSIP-City1169,0.0001,0.0001,100012,100001,(091) 99989292,9:00:00,eng,5,00:15:00,07:00:00,17:00:00,(GMT+05:30) Indian Standard Time,Officer-10409,12:00:00,13:00:00,true,MYZONE
10991,MOSIP-Center-10991,REG,Address-MOSIP-Center-10991,MOSIP-City5562,MOSIP-City5562,0.0001,0.0001,100039,100001,(091) 99989892,9:00:00,eng,5,00:15:00,07:00:00,17:00:00,(GMT+05:30) Indian Standard Time,Officer-10991,12:00:00,13:00:00,true,MYZONE
10024,MOSIP-Center-10024,REG,Address-MOSIP-Center-10024,MOSIP-City476,MOSIP-City476,0.0001,0.0001,100018,100001,(091) 99989251,9:00:00,eng,5,00:15:00,07:00:00,17:00:00,(GMT+05:30) Indian Standard Time,Officer-10024,12:00:00,13:00:00,true,MYZONE
10998,MOSIP-Center-10998,REG,Address-MOSIP-Center-10998,MOSIP-City5758,MOSIP-City5758,0.0001,0.0001,100019,100001,(091) 99989899,9:00:00,eng,5,00:15:00,07:00:00,17:00:00,(GMT+05:30) Indian Standard Time,Officer-10998,12:00:00,13:00:00,true,MYZONE
10138,MOSIP-Center-10138,REG,Address-MOSIP-Center-10138,MOSIP-City43,MOSIP-City43,0.0001,0.0001,100066,100001,(091) 99989000,9:00:00,eng,5,00:15:00,07:00:00,17:00:00,(GMT+05:30) Indian Standard Time,Officer-10138,12:00:00,13:00:00,true,MYZONE
10753,MOSIP-Center-10753,REG,Address-MOSIP-Center-10753,MOSIP-City386,MOSIP-City386,0.0001,0.0001,100035,100001,(091) 99989653,9:00:00,eng,5,00:15:00,07:00:00,17:00:00,(GMT+05:30) Indian Standard Time,Officer-10753,12:00:00,13:00:00,true,MYZONE
10300,MOSIP-Center-10300,REG,Address-MOSIP-Center-10300,MOSIP-City265,MOSIP-City265,0.0001,0.0001,100046,100001,(091) 99989174,9:00:00,eng,5,00:15:00,07:00:00,17:00:00,(GMT+05:30) Indian Standard Time,Officer-10300,12:00:00,13:00:00,true,MYZONE
10584,MOSIP-Center-10584,REG,Address-MOSIP-Center-10584,MOSIP-City958,MOSIP-City958,0.0001,0.0001,100008,100001,(091) 99989478,9:00:00,eng,5,00:15:00,07:00:00,17:00:00,(GMT+05:30) Indian Standard Time,Officer-10584,12:00:00,13:00:00,true,MYZONE
10517,MOSIP-Center-10517,REG,Address-MOSIP-Center-10517,MOSIP-City1451,MOSIP-City1451,0.0001,0.0001,100014,100001,(091) 99989406,9:00:00,eng,5,00:15:00,07:00:00,17:00:00,(GMT+05:30) Indian Standard Time,Officer-10517,12:00:00,13:00:00,true,MYZONE
10866,MOSIP-Center-10866,REG,Address-MOSIP-Center-10866,MOSIP-City2062,MOSIP-City2062,0.0001,0.0001,100060,100001,(091) 99989767,9:00:00,eng,5,00:15:00,07:00:00,17:00:00,(GMT+05:30) Indian Standard Time,Officer-10866,12:00:00,13:00:00,true,MYZONE
